{"type": "FeatureCollection", "features": [ {"type": "Feature", "properties": {"norad_id": 33153, "name": "INTELSAT 25 (IS-25)", "group": "intelsat", "lat": -2.246305685218689, "lon": -16.05109490234403, "alt_km": 35779.549200748115, "timestamp": "2025-12-26T18:39:31.940022+00:00", "meta": {"OBJECT_NAME": "INTELSAT 25 (IS-25)", "OBJECT_ID": "2008-034A", "EPOCH": "2025-12-26T11:10:18.842304", "MEAN_MOTION": 1.00271391, "ECCENTRICITY": 0.00049958, "INCLINATION": 2.2611, "RA_OF_ASC_NODE": 82.4991, "ARG_OF_PERICENTER": 190.6323, "MEAN_ANOMALY": 318.163, "EPHEMERIS_TYPE": 0, "CLASSIFICATION_TYPE": "U", "NORAD_CAT_ID": 33153, "ELEMENT_SET_NO": 999, "REV_AT_EPOCH": 6396, "BSTAR": 0, "MEAN_MOTION_DOT": -2.03e-06, "MEAN_MOTION_DDOT": 0}, "tle": {"line1": "1 33153U 08034A   25360.46549586 -.00000203  00000+0  00000+0 0  9997", "line2": "2 33153   2.2611  82.4991 0004995 190.6323 318.1630  1.00271391 63963"}}, "geometry": {"type": "Point", "coordinates": [-16.05109490234403, -2.246305685218689]}}, {"type": "Feature", "properties": {"norad_id": 33376, "name": "GALAXY 19 (G-19)", "group": "intelsat", "lat": -0.01104440194425457, "lon": -81.61070207597899, "alt_km": 35774.261843818385, "timestamp": "2025-12-26T18:39:31.940034+00:00", "meta": {"OBJECT_NAME": "GALAXY 19 (G-19)", "OBJECT_ID": "2008-045A", "EPOCH": "2025-12-26T11:24:38.058336", "MEAN_MOTION": 1.00271648, "ECCENTRICITY": 0.00028136, "INCLINATION": 0.0383, "RA_OF_ASC_NODE": 264.7732, "ARG_OF_PERICENTER": 18.0555, "MEAN_ANOMALY": 246.5483, "EPHEMERIS_TYPE": 0, "CLASSIFICATION_TYPE": "U", "NORAD_CAT_ID": 33376, "ELEMENT_SET_NO": 999, "REV_AT_EPOCH": 6317, "BSTAR": 0, "MEAN_MOTION_DOT": -1.17e-06, "MEAN_MOTION_DDOT": 0}, "tle": {"line1": "1 33376U 08045A   25360.47544049 -.00000117  00000+0  00000+0 0  9990", "line2": "2 33376   0.0383 264.7732 0002813  18.0555 246.5483  1.00271648 63175"}}, "geometry": {"type": "Point", "coordinates": [-81.61070207597899, -0.01104440194425457]}}, {"type": "Feature", "properties": {"norad_id": 35493, "name": "FM-5", "group": "intelsat", "lat": -0.014927182031252845, "lon": -70.75910716562049, "alt_km": 35788.824155621536, "timestamp": "2025-12-26T18:39:31.940046+00:00", "meta": {"OBJECT_NAME": "FM-5", "OBJECT_ID": "2009-034A", "EPOCH": "2025-12-25T21:13:02.840160", "MEAN_MOTION": 1.00269478, "ECCENTRICITY": 7.9e-05, "INCLINATION": 0.0148, "RA_OF_ASC_NODE": 303.8545, "ARG_OF_PERICENTER": 217.7513, "MEAN_ANOMALY": 165.1409, "EPHEMERIS_TYPE": 0, "CLASSIFICATION_TYPE": "U", "NORAD_CAT_ID": 35493, "ELEMENT_SET_NO": 999, "REV_AT_EPOCH": 4490, "BSTAR": 0, "MEAN_MOTION_DOT": -1.78e-06, "MEAN_MOTION_DDOT": 0}, "tle": {"line1": "1 35493U 09034A   25359.88406065 -.00000178  00000+0  00000+0 0  9996", "line2": "2 35493   0.0148 303.8545 0000790 217.7513 165.1409  1.00269478 44909"}}, "geometry": {"type": "Point", "coordinates": [-70.75910716562049, -0.014927182031252845]}}, {"type": "Feature", "properties": {"norad_id": 36097, "name": "INTELSAT 14 (IS-14)", "group": "intelsat", "lat": -0.02507353559979766, "lon": -29.58356375818571, "alt_km": 35778.65277863605, "timestamp": "2025-12-26T18:39:31.940057+00:00", "meta": {"OBJECT_NAME": "INTELSAT 14 (IS-14)", "OBJECT_ID": "2009-064A", "EPOCH": "2025-12-26T11:06:19.224000", "MEAN_MOTION": 1.00271706, "ECCENTRICITY": 0.00026446, "INCLINATION": 0.0128, "RA_OF_ASC_NODE": 39.804, "ARG_OF_PERICENTER": 242.6643, "MEAN_ANOMALY": 294.3197, "EPHEMERIS_TYPE": 0, "CLASSIFICATION_TYPE": "U", "NORAD_CAT_ID": 36097, "ELEMENT_SET_NO": 999, "REV_AT_EPOCH": 5887, "BSTAR": 0, "MEAN_MOTION_DOT": -2.51e-06, "MEAN_MOTION_DDOT": 0}, "tle": {"line1": "1 36097U 09064A   25360.46272250 -.00000251  00000+0  00000+0 0  9995", "line2": "2 36097   0.0128  39.8040 0002644 242.6643 294.3197  1.00271706 58872"}}, "geometry": {"type": "Point", "coordinates": [-29.58356375818571, -0.02507353559979766]}}, {"type": "Feature", "properties": {"norad_id": 36106, "name": "INTELSAT 15 (IS-15)", "group": "intelsat", "lat": 0.02773351704602082, "lon": 100.54578253988245, "alt_km": 35796.77969035285, "timestamp": "2025-12-26T18:39:31.940069+00:00", "meta": {"OBJECT_NAME": "INTELSAT 15 (IS-15)", "OBJECT_ID": "2009-067A", "EPOCH": "2025-12-26T03:37:38.694720", "MEAN_MOTION": 1.00270174, "ECCENTRICITY": 0.00024301, "INCLINATION": 0.0154, "RA_OF_ASC_NODE": 51.9638, "ARG_OF_PERICENTER": 235.3713, "MEAN_ANOMALY": 307.1291, "EPHEMERIS_TYPE": 0, "CLASSIFICATION_TYPE": "U", "NORAD_CAT_ID": 36106, "ELEMENT_SET_NO": 999, "REV_AT_EPOCH": 3949, "BSTAR": 0, "MEAN_MOTION_DOT": -1.63e-06, "MEAN_MOTION_DDOT": 0}, "tle": {"line1": "1 36106U 09067A   25360.15114230 -.00000163  00000+0  00000+0 0  9990", "line2": "2 36106   0.0154  51.9638 0002430 235.3713 307.1291  1.00270174 39493"}}, "geometry": {"type": "Point", "coordinates": [100.54578253988245, 0.02773351704602082]}}, {"type": "Feature", "properties": {"norad_id": 36131, "name": "DIRECTV 12", "group": "intelsat", "lat": -0.0009804935831880374, "lon": -87.31381192051518, "alt_km": 35783.92009364368, "timestamp": "2025-12-26T18:39:31.940081+00:00", "meta": {"OBJECT_NAME": "DIRECTV 12", "OBJECT_ID": "2009-075A", "EPOCH": "2025-12-25T14:17:27.635136", "MEAN_MOTION": 1.00273448, "ECCENTRICITY": 5.26e-05, "INCLINATION": 0.0362, "RA_OF_ASC_NODE": 165.2057, "ARG_OF_PERICENTER": 147.3669, "MEAN_ANOMALY": 253.4343, "EPHEMERIS_TYPE": 0, "CLASSIFICATION_TYPE": "U", "NORAD_CAT_ID": 36131, "ELEMENT_SET_NO": 999, "REV_AT_EPOCH": 4481, "BSTAR": 0, "MEAN_MOTION_DOT": -8.2e-07, "MEAN_MOTION_DDOT": 0}, "tle": {"line1": "1 36131U 09075A   25359.59545874 -.00000082  00000+0  00000+0 0  9995", "line2": "2 36131   0.0362 165.2057 0000526 147.3669 253.4343  1.00273448 44812"}}, "geometry": {"type": "Point", "coordinates": [-87.31381192051518, -0.0009804935831880374]}}, {"type": "Feature", "properties": {"norad_id": 36397, "name": "INTELSAT 16 (IS-16)", "group": "intelsat", "lat": -0.02706612622893123, "lon": -60.77871909322364, "alt_km": 35778.449855758714, "timestamp": "2025-12-26T18:39:31.940093+00:00", "meta": {"OBJECT_NAME": "INTELSAT 16 (IS-16)", "OBJECT_ID": "2010-006A", "EPOCH": "2025-12-26T12:40:10.236864", "MEAN_MOTION": 1.00271686, "ECCENTRICITY": 0.00020264, "INCLINATION": 0.0098, "RA_OF_ASC_NODE": 8.0351, "ARG_OF_PERICENTER": 264.8493, "MEAN_ANOMALY": 296.2475, "EPHEMERIS_TYPE": 0, "CLASSIFICATION_TYPE": "U", "NORAD_CAT_ID": 36397, "ELEMENT_SET_NO": 999, "REV_AT_EPOCH": 5792, "BSTAR": 0, "MEAN_MOTION_DOT": -2.23e-06, "MEAN_MOTION_DDOT": 0}, "tle": {"line1": "1 36397U 10006A   25360.52789626 -.00000223  00000+0  00000+0 0  9992", "line2": "2 36397   0.0098   8.0351 0002026 264.8493 296.2475  1.00271686 57929"}}, "geometry": {"type": "Point", "coordinates": [-60.77871909322364, -0.02706612622893123]}}, {"type": "Feature", "properties": {"norad_id": 37185, "name": "XM-5", "group": "intelsat", "lat": -0.027594593860202545, "lon": -99.77756227793138, "alt_km": 35788.488950753446, "timestamp": "2025-12-26T18:39:31.940104+00:00", "meta": {"OBJECT_NAME": "XM-5", "OBJECT_ID": "2010-053A", "EPOCH": "2025-12-26T06:45:38.542176", "MEAN_MOTION": 1.00272159, "ECCENTRICITY": 0.00020386, "INCLINATION": 0.0641, "RA_OF_ASC_NODE": 269.394, "ARG_OF_PERICENTER": 243.8981, "MEAN_ANOMALY": 287.9534, "EPHEMERIS_TYPE": 0, "CLASSIFICATION_TYPE": "U", "NORAD_CAT_ID": 37185, "ELEMENT_SET_NO": 999, "REV_AT_EPOCH": 5575, "BSTAR": 0, "MEAN_MOTION_DOT": -1e-08, "MEAN_MOTION_DDOT": 0}, "tle": {"line1": "1 37185U 10053A   25360.28169609 -.00000001  00000+0  00000+0 0  9990", "line2": "2 37185   0.0641 269.3940 0002038 243.8981 287.9534  1.00272159 55755"}}, "geometry": {"type": "Point", "coordinates": [-99.77756227793138, -0.027594593860202545]}}, {"type": "Feature", "properties": {"norad_id": 37238, "name": "INTELSAT 17 (IS-17)", "group": "intelsat", "lat": 0.01737941575517665, "lon": 81.38810574507428, "alt_km": 35795.775034448205, "timestamp": "2025-12-26T18:39:31.940116+00:00", "meta": {"OBJECT_NAME": "INTELSAT 17 (IS-17)", "OBJECT_ID": "2010-065B", "EPOCH": "2025-12-26T15:53:27.454848", "MEAN_MOTION": 1.00272011, "ECCENTRICITY": 0.00029351, "INCLINATION": 0.0297, "RA_OF_ASC_NODE": 74.8027, "ARG_OF_PERICENTER": 224.8642, "MEAN_ANOMALY": 100.0752, "EPHEMERIS_TYPE": 0, "CLASSIFICATION_TYPE": "U", "NORAD_CAT_ID": 37238, "ELEMENT_SET_NO": 999, "REV_AT_EPOCH": 5151, "BSTAR": 0, "MEAN_MOTION_DOT": 0, "MEAN_MOTION_DDOT": 0}, "tle": {"line1": "1 37238U 10065B   25360.66212332  .00000000  00000+0  00000+0 0  9994", "line2": "2 37238   0.0297  74.8027 0002935 224.8642 100.0752  1.00272011 51519"}}, "geometry": {"type": "Point", "coordinates": [81.38810574507428, 0.01737941575517665]}}, {"type": "Feature", "properties": {"norad_id": 37392, "name": "INTELSAT 28 (IS-28)", "group": "intelsat", "lat": -1.3420433762131148, "lon": -16.27148260489088, "alt_km": 35781.066293610245, "timestamp": "2025-12-26T18:39:31.940127+00:00", "meta": {"OBJECT_NAME": "INTELSAT 28 (IS-28)", "OBJECT_ID": "2011-016A", "EPOCH": "2025-12-26T00:24:38.640960", "MEAN_MOTION": 1.00271568, "ECCENTRICITY": 0.00037974, "INCLINATION": 1.3569, "RA_OF_ASC_NODE": 84.9113, "ARG_OF_PERICENTER": 188.0675, "MEAN_ANOMALY": 156.2464, "EPHEMERIS_TYPE": 0, "CLASSIFICATION_TYPE": "U", "NORAD_CAT_ID": 37392, "ELEMENT_SET_NO": 999, "REV_AT_EPOCH": 5154, "BSTAR": 0, "MEAN_MOTION_DOT": -2.03e-06, "MEAN_MOTION_DDOT": 0}, "tle": {"line1": "1 37392U 11016A   25360.01711390 -.00000203  00000+0  00000+0 0  9995", "line2": "2 37392   1.3569  84.9113 0003797 188.0675 156.2464  1.00271568 51540"}}, "geometry": {"type": "Point", "coordinates": [-16.27148260489088, -1.3420433762131148]}}]}